[
    {
        "Altitude(m)": 612502.2518181591,
        "Argument of Periapsis(deg)": 0.0,
        "Eccentricity": 0.0,
        "Inclination(deg)": 60.0,
        "Latitude(deg)": -28.136158252390064,
        "Longitude(deg)": -72.85174224073376,
        "Mean Anomaly(deg)": -32.72730000000001,
        "RAAN(deg)": 45.0,
        "Satellite Name": "Test1 218",
        "Satellite Number": 218,
        "Semi-Major Axis(m)": 6980739.136638005,
        "Time(s)": 0
    },
    {
        "Altitude(m)": 612308.6989812716,
        "Argument of Periapsis(deg)": 0.00010418945913296404,
        "Eccentricity": 0.0,
        "Inclination(deg)": 60.0,
        "Latitude(deg)": -27.62321347304666,
        "Longitude(deg)": -72.49826767916677,
        "Mean Anomaly(deg)": -32.10719385453817,
        "RAAN(deg)": 44.99957995086026,
        "Satellite Name": "Test1 218",
        "Satellite Number": 218,
        "Semi-Major Axis(m)": 6980739.136638005,
        "Time(s)": 10
    }
]